NORAD_CAT_ID,OBJECT_NAME,OBJECT_TYPE,EPOCH,MEAN_MOTION,ECCENTRICITY,INCLINATION,RA_OF_ASC_NODE,ARG_OF_PERICENTER,MEAN_ANOMALY,BSTAR,MEAN_MOTION_DOT,MEAN_MOTION_DDOT,TLE_LINE0,TLE_LINE1,TLE_LINE2,SEMIMAJOR_AXIS,PERIOD,APOGEE,PERIGEE,DECAYED
52273.0,STARLINK-3782,PAYLOAD,2022-12-16 17:50:42,15.08842281,0.0002375,53.2186,351.6186,40.2381,319.8787,-2.0823e-05,-6.2e-06,0.0,0 STARLINK-3782,1 52273U 22041N   22350.74355102 -.00000620  00000-0 -20823-4 0  9996,2 52273  53.2186 351.6186 0002375  40.2381 319.8787 15.08842281 37744,6917.873000000001,95.437,541.381,538.095,0.0
52273.0,STARLINK-3782,PAYLOAD,2022-12-17 11:19:57,15.08841639,0.0002327,53.2191,348.3468,41.374,318.7428,-3.7459e-05,-8.85e-06,0.0,0 STARLINK-3782,1 52273U 22041N   22351.47219108 -.00000885  00000-0 -37459-4 0  9998,2 52273  53.2191 348.3468 0002327  41.3740 318.7428 15.08841639 36637,6917.875,95.437,541.35,538.131,0.0
52273.0,STARLINK-3782,PAYLOAD,2022-12-18 09:35:21,15.08838539,0.0002247,53.2187,344.1858,39.5139,320.6017,-5.721e-05,-1.199e-05,0.0,0 STARLINK-3782,1 52273U 22041N   22352.39955336 -.00001199  00000-0 -57210-4 0  9996,2 52273  53.2187 344.1858 0002247  39.5139 320.6017 15.08838539 37992,6917.885,95.438,541.304,538.195,0.0
52273.0,STARLINK-3782,PAYLOAD,2022-12-18 23:53:50,15.0883051,0.0002268,53.2187,341.5092,42.2614,317.8553,-4.6416e-05,-1.027e-05,0.0,0 STARLINK-3782,1 52273U 22041N   22352.99572055 -.00001027  00000-0 -46416-4 0  9991,2 52273  53.2187 341.5092 0002268  42.2614 317.8553 15.08830510 38080,6917.909000000002,95.438,541.3430000000002,538.205,0.0
52273.0,STARLINK-3782,PAYLOAD,2022-12-19 07:50:46,15.08828068,0.0002314,53.2204,340.0227,36.2413,323.8736,-1.4103e-05,-5.13e-06,0.0,0 STARLINK-3782,1 52273U 22041N   22353.32692352 -.00000513  00000-0 -14103-4 0  9999,2 52273  53.2204 340.0227 0002314  36.2413 323.8736 15.08828068 36911,6917.917,95.438,541.383,538.181,0.0
52273.0,STARLINK-3782,PAYLOAD,2022-12-19 15:47:41,15.08840585,0.0002358,53.2197,338.5357,38.0031,322.1127,5.3233e-05,5.59e-06,0.0,0 STARLINK-3782,1 52273U 22041N   22353.65811467  .00000559  00000-0  53233-4 0  9990,2 52273  53.2197 338.5357 0002358  38.0031 322.1127 15.08840585 38187,6917.879,95.438,541.375,538.112,0.0
52273.0,STARLINK-3782,PAYLOAD,2022-12-20 02:55:22,15.08851324,0.0002215,53.22,336.4535,36.8242,323.2902,9.0921e-05,1.159e-05,0.0,0 STARLINK-3782,1 52273U 22041N   22354.12178575  .00001159  00000-0  90921-4 0  9991,2 52273  53.2200 336.4535 0002215  36.8242 323.2902 15.08851324 38253,6917.846,95.437,541.243,538.178,0.0
52273.0,STARLINK-3782,PAYLOAD,2022-12-20 09:16:55,15.08846877,0.0002263,53.22,335.2641,36.8954,323.2194,8.5642e-05,1.075e-05,0.0,0 STARLINK-3782,1 52273U 22041N   22354.38674778  .00001075  00000-0  85642-4 0  9996,2 52273  53.2200 335.2641 0002263  36.8954 323.2194 15.08846877 37070,6917.859,95.437,541.29,538.159,0.0
52273.0,STARLINK-3782,PAYLOAD,2022-12-20 21:59:59,15.08844444,0.0002237,53.2201,332.8851,34.8518,325.262,0.00012965,1.776e-05,0.0,0 STARLINK-3782,1 52273U 22041N   22354.91666593  .00001776  00000-0  12965-3 0  9996,2 52273  53.2201 332.8851 0002237  34.8518 325.2620 15.08844444 38370,6917.8669999999975,95.437,541.279,538.184,0.0
52273.0,STARLINK-3782,PAYLOAD,2022-12-20 23:35:23,15.08833149,0.0002129,53.2221,332.5887,45.2027,314.9138,8.0808e-05,9.98e-06,0.0,0 STARLINK-3782,1 52273U 22041N   22354.98291561  .00000998  00000-0  80808-4 0  9999,2 52273  53.2221 332.5887 0002129  45.2027 314.9138 15.08833149 38389,6917.901,95.438,541.239,538.294,0.0
52273.0,STARLINK-3782,PAYLOAD,2022-12-21 09:07:43,15.08822139,0.0002258,53.2198,330.8040000000001,33.9785,326.1351,-3.11e-05,-7.83e-06,0.0,0 STARLINK-3782,1 52273U 22041N   22355.38037027 -.00000783  00000-0 -31100-4 0  9994,2 52273  53.2198 330.8040 0002258  33.9785 326.1351 15.08822139 38448,6917.935,95.439,541.362,538.238,0.0
52273.0,STARLINK-3782,PAYLOAD,2022-12-21 15:29:16,15.08831067,0.0002162,53.2197,329.6135,33.0105,327.1022,-1.3733e-05,-5.07e-06,0.0,0 STARLINK-3782,1 52273U 22041N   22355.64532530 -.00000507  00000-0 -13733-4 0  9998,2 52273  53.2197 329.6135 0002162  33.0105 327.1022 15.08831067 38489,6917.908,95.438,541.268,538.2769999999998,0.0
52273.0,STARLINK-3782,PAYLOAD,2022-12-22 05:47:45,15.08821541,0.0002557,53.2208,326.9378,34.619,325.4968,-0.00018264,-3.193e-05,0.0,0 STARLINK-3782,1 52273U 22041N   22356.24150343 -.00003193  00000-0 -18264-3 0  9990,2 52273  53.2208 326.9378 0002557  34.6190 325.4968 15.08821541 38576,6917.937,95.439,541.571,538.033,0.0
52273.0,STARLINK-3782,PAYLOAD,2022-12-22 10:33:55,15.08823671,0.0002419,53.2202,326.0463,36.6246,323.4911,-0.00015055,-2.683e-05,0.0,0 STARLINK-3782,1 52273U 22041N   22356.44022272 -.00002683  00000-0 -15055-3 0  9999,2 52273  53.2202 326.0463 0002419  36.6246 323.4911 15.08823671 37387,6917.93,95.439,541.469,538.122,0.0
52273.0,STARLINK-3782,PAYLOAD,2022-12-22 15:20:04,15.08826787,0.0002245,53.2198,325.1549,40.6883,319.4276,-0.00011686,-2.147e-05,0.0,0 STARLINK-3782,1 52273U 22041N   22356.63894104 -.00002147  00000-0 -11686-3 0  9992,2 52273  53.2198 325.1549 0002245  40.6883 319.4276 15.08826787 38634,6917.920999999999,95.438,541.339,538.2330000000002,0.0
52273.0,STARLINK-3782,PAYLOAD,2022-12-23 04:03:09,15.08829181,0.0002102,53.2197,322.7755,38.3091,321.805,6.8516e-05,8.02e-06,0.0,0 STARLINK-3782,1 52273U 22041N   22357.16885720  .00000802  00000-0  68516-4 0  9994,2 52273  53.2197 322.7755 0002102  38.3091 321.8050 15.08829181 38719,6917.913000000001,95.438,541.2330000000002,538.3240000000002,0.0
52273.0,STARLINK-3782,PAYLOAD,2022-12-23 05:38:32,15.08825525,0.0002272,53.2196,322.4788,40.025,320.0909,0.00017025,2.421e-05,0.0,0 STARLINK-3782,1 52273U 22041N   22357.23509735  .00002421  00000-0  17025-3 0  9998,2 52273  53.2196 322.4788 0002272  40.0250 320.0909 15.08825525 37504,6917.925,95.438,541.361,538.2180000000002,0.0
52273.0,STARLINK-3782,PAYLOAD,2022-12-23 15:10:50,15.08838845,0.0001825,53.22,320.6942,51.0346,309.0808,0.00019734,2.854e-05,0.0,0 STARLINK-3782,1 52273U 22041N   22357.63252932  .00002854  00000-0  19734-3 0  9995,2 52273  53.2200 320.6942 0001825  51.0346 309.0808 15.08838845 38788,6917.884,95.438,541.011,538.486,0.0
52273.0,STARLINK-3782,PAYLOAD,2022-12-24 03:53:55,15.08836305,0.0002254,53.2197,318.315,43.5209,316.596,0.00024577,3.625e-05,0.0,0 STARLINK-3782,1 52273U 22041N   22358.16245135  .00003625  00000-0  24577-3 0  9999,2 52273  53.2197 318.3150 0002254  43.5209 316.5960 15.08836305 37644,6917.892,95.438,541.316,538.197,0.0
52273.0,STARLINK-3782,PAYLOAD,2022-12-24 15:01:37,15.08838346,0.0002303,53.2195,316.2340000000001,43.5637,316.5537,0.00017467,2.493e-05,0.0,0 STARLINK-3782,1 52273U 22041N   22358.62613324  .00002493  00000-0  17467-3 0  9991,2 52273  53.2195 316.2340 0002303  43.5637 316.5537 15.08838346 38930,6917.885,95.438,541.344,538.1569999999998,0.0
52273.0,STARLINK-3782,PAYLOAD,2022-12-25 03:44:42,15.08841772,0.0002095,53.2199,313.8571,29.0503,331.0605,7.6002e-05,9.22e-06,0.0,0 STARLINK-3782,1 52273U 22041N   22359.15605119  .00000922  00000-0  76002-4 0  9999,2 52273  53.2199 313.8571 0002095  29.0503 331.0605 15.08841772 37790,6917.875,95.437,541.189,538.2909999999998,0.0
52273.0,STARLINK-3782,PAYLOAD,2022-12-25 21:13:57,15.088401500000002,0.0002173,53.2185,310.5843,36.8599,323.2542,-8.321399999999999e-05,-1.612e-05,0.0,0 STARLINK-3782,1 52273U 22041N   22359.88469477 -.00001612  00000-0 -83214-4 0  9996,2 52273  53.2185 310.5843 0002173  36.8599 323.2542 15.08840150 37904,6917.88,95.438,541.248,538.242,0.0
52273.0,STARLINK-3782,PAYLOAD,2022-12-26 03:35:29,15.08844518,0.000223,53.2192,309.3944,44.5343,315.5828,-5.146e-05,-1.107e-05,0.0,0 STARLINK-3782,1 52273U 22041N   22360.14965027 -.00001107  00000-0 -51460-4 0  9996,2 52273  53.2192 309.3944 0002230  44.5343 315.5828 15.08844518 39160,6917.8669999999975,95.437,541.274,538.189,0.0
52273.0,STARLINK-3782,PAYLOAD,2022-12-26 21:04:43,15.08857933,0.0002155,53.22,306.1243,37.3418,322.7724,-0.0002181,-3.76e-05,0.0,0 STARLINK-3782,1 52273U 22041N   22360.87828503 -.00003760  00000-0 -21810-3 0  9995,2 52273  53.2200 306.1243 0002155  37.3418 322.7724 15.08857933 38053,6917.826,95.436,541.181,538.2,0.0
52273.0,STARLINK-3782,PAYLOAD,2022-12-26 22:40:07,15.08844552,0.0002142,53.2202,305.8257,40.739,319.3762,-2.4958e-05,-6.86e-06,0.0,0 STARLINK-3782,1 52273U 22041N   22360.94452767 -.00000686  00000-0 -24958-4 0  9999,2 52273  53.2202 305.8257 0002142  40.7390 319.3762 15.08844552 38067,6917.866,95.437,541.2130000000002,538.25,0.0
52273.0,STARLINK-3782,PAYLOAD,2022-12-27 12:58:34,15.08847016,0.0002147,53.2195,303.1504,38.8576,321.257,0.00010824,1.435e-05,0.0,0 STARLINK-3782,1 52273U 22041N   22361.54067883  .00001435  00000-0  10824-3 0  9994,2 52273  53.2195 303.1504 0002147  38.8576 321.2570 15.08847016 39375,6917.859,95.437,541.2090000000002,538.239,0.0
52273.0,STARLINK-3782,PAYLOAD,2022-12-28 12:49:22,15.08827522,0.0002254999999999,53.2203,298.6916,45.9689,314.1489,-5.2401e-05,-1.122e-05,0.0,0 STARLINK-3782,1 52273U 22041N   22362.53429361 -.00001122  00000-0 -52401-4 0  9990,2 52273  53.2203 298.6916 0002255  45.9689 314.1489 15.08827522 39521,6917.919,95.438,541.344,538.224,0.0
52273.0,STARLINK-3782,PAYLOAD,2022-12-29 04:43:13,15.08862297,0.0002287,53.2191,295.7143,52.2466,307.8733,-0.0004753,-7.85e-05,0.0,0 STARLINK-3782,1 52273U 22041N   22363.19668715 -.00007850  00000-0 -47530-3 0  9991,2 52273  53.2191 295.7143 0002287  52.2466 307.8733 15.08862297 39626,6917.812,95.436,541.259,538.095,0.0
52273.0,STARLINK-3782,PAYLOAD,2022-12-29 12:40:11,15.08822685,0.000221,53.2187,294.2293,42.4197,317.6965,-0.00018273,-3.194e-05,0.0,0 STARLINK-3782,1 52273U 22041N   22363.52790552 -.00003194  00000-0 -18273-3 0  9992,2 52273  53.2187 294.2293 0002210  42.4197 317.6965 15.08822685 39677,6917.933000000001,95.439,541.327,538.269,0.0
